{"fetched_at":"2026-03-29T16:36:15Z","count":15609,"tles":[{"name":"STARLINK-11570 [DTC]","line1":"1 62992U 25031M   26087.35081558  .00146297  00000+0  11139-2 0  9992","line2":"2 62992  42.9982 249.3003 0002045 231.4896 128.5789 15.71046177 65661","category":"Starlink"}]}