{
  "norad_id": 62992,
  "name": "STARLINK-11570 [DTC]",
  "history": [
    {
      "epoch": "2026-03-28T08:25:10.466112",
      "apogee_km": 357.28294532301607,
      "perigee_km": 354.5287218040885,
      "latitude_deg": -32.79891067448485,
      "longitude_deg": 152.87829567980953,
      "semi_major_axis_km": 6734.042833563552,
      "eccentricity": 0.0002045,
      "inclination_deg": 42.9982,
      "raan_deg": 249.3003,
      "arg_perigee_deg": 231.4896,
      "mean_anomaly_deg": 128.5789,
      "mean_motion_rev_day": 15.71046177
    }
  ]
}